[{"OBJECT_NAME":"STARLINK-2750","OBJECT_ID":"2021-044BF","EPOCH":"2026-03-10T00:00:02.999808","MEAN_MOTION":15.29347345,"ECCENTRICITY":0.00015288,"INCLINATION":53.1561,"RA_OF_ASC_NODE":73.8355,"ARG_OF_PERICENTER":90.9672,"MEAN_ANOMALY":300.9829,"EPHEMERIS_TYPE":0,"CLASSIFICATION_TYPE":"U","NORAD_CAT_ID":48691,"ELEMENT_SET_NO":999,"REV_AT_EPOCH":578,"BSTAR":0.0018051461,"MEAN_MOTION_DOT":0.00052085,"MEAN_MOTION_DDOT":0},{"OBJECT_NAME":"KUIPER-00266","OBJECT_ID":"2026-030AB","EPOCH":"2026-03-08T21:54:37.698048","MEAN_MOTION":15.30874235,"ECCENTRICITY":0.0022313,"INCLINATION":51.8807,"RA_OF_ASC_NODE":223.5904,"ARG_OF_PERICENTER":72.5291,"MEAN_ANOMALY":287.8129,"EPHEMERIS_TYPE":0,"CLASSIFICATION_TYPE":"U","NORAD_CAT_ID":67789,"ELEMENT_SET_NO":999,"REV_AT_EPOCH":496,"BSTAR":0.00098219753,"MEAN_MOTION_DOT":0.00029701,"MEAN_MOTION_DDOT":0}]
